HIMAWARI-8              
1 40267U 14060A   24176.46855966 -.00000267  00000+0  00000+0 0  9993
2 40267   0.0591 119.9847 0000864   1.5170 100.9430  1.00269254 35618
